TEVEL2-2                
1 63219U 25052K   26095.64359725  .00023085  00000+0  75916-3 0  9996
2 63219  97.3954 351.6823 0004075  53.6363 306.5254 15.31527674 58986
TEVEL2-9                
1 63237U 25052AD  26094.94328454  .00021003  00000+0  73068-3 0  9997
2 63237  97.4021 350.5057 0007819  54.2343 305.9623 15.29701759 58824
TEVEL2-7                
1 63238U 25052AE  26095.69114880  .00021208  00000+0  74245-3 0  9992
2 63238  97.4017 351.1941 0007925  52.1337 308.0619 15.29494873 58934
TEVEL2-8                
1 63239U 25052AF  26095.69854633  .00021672  00000+0  75902-3 0  9996
2 63239  97.4017 351.1810 0007929  52.9481 307.2483 15.29475567 58931
HADES-ICM               
1 63492U 25052BN  26095.67919037  .00260860  00000+0  23582-2 0  9995
2 63492  97.3876 357.2845 0006090  76.4715 283.7224 15.67273665 59353
INNOSAT 16 (RS92S7)     
1 64878U 25155C   26095.89240094  .00008885  00000+0  36198-3 0  9997
2 64878  97.4513  63.3246 0012635  82.4335 277.8337 15.24634859 69650
GEOSCAN 6 (RS92S6)      
1 64879U 25155D   26095.88633990  .00014056  00000+0  50468-3 0  9991
2 64879  97.4510  64.2644 0010115  78.0005 282.2368 15.28739086 69719
GEOSCAN 1 (RS92S1)      
1 64880U 25155E   26095.84870764  .00016024  00000+0  56647-3 0  9993
2 64880  97.4507  64.3182 0010072  78.5196 281.7174 15.29216624 69711
239ALFEROV (RS61S)      
1 64881U 25155F   26095.84554112  .00019005  00000+0  63617-3 0  9997
2 64881  97.4511  64.6576 0009780  78.5421 281.6917 15.30959021 69735
GEOSCAN 2 (RS92S2)      
1 64890U 25155Q   26095.85573560  .00016078  00000+0  56336-3 0  9993
2 64890  97.4506  64.4477 0009204  68.4398 291.7822 15.29514855 69725
GEOSCAN 5 (RS92S5)      
1 64891U 25155R   26095.84981225  .00019915  00000+0  65975-3 0  9996
2 64891  97.4504  64.7711 0008694  83.8592 276.3639 15.31294502 69741
GEOSCAN 4 (RS92S4)      
1 64892U 25155S   26095.84027350  .00019956  00000+0  65874-3 0  9990
2 64892  97.4507  64.7919 0008745  84.3793 275.8445 15.31409594 69749
GEOSCAN 3 (RS92S3)      
1 64893U 25155T   26095.85834191  .00025154  00000+0  79047-3 0  9995
2 64893  97.4497  65.0566 0008514  86.2565 273.9651 15.32942953 69764
INNOSAT 3 (RS92S0)      
1 64894U 25155U   26095.85961197  .00043188  00000+0  11155-2 0  9995
2 64894  97.4461  65.9233 0008384  87.9438 272.2767 15.38971585 69824
KNACKSAT-2              
1 67683U 98067XZ  26095.81892939  .00047225  00000+0  71168-3 0  9996
2 67683  51.6317 296.8195 0010840 286.1763  73.8034 15.54247426  9005
