[{"OBJECT_NAME":"TEVEL2-2","OBJECT_ID":"2025-052K","EPOCH":"2026-04-05T15:26:46.802400","MEAN_MOTION":15.31527674,"ECCENTRICITY":0.0004075,"INCLINATION":97.3954,"RA_OF_ASC_NODE":351.6823,"ARG_OF_PERICENTER":53.6363,"MEAN_ANOMALY":306.5254,"EPHEMERIS_TYPE":0,"CLASSIFICATION_TYPE":"U","NORAD_CAT_ID":63219,"ELEMENT_SET_NO":999,"REV_AT_EPOCH":5898,"BSTAR":0.00075916,"MEAN_MOTION_DOT":0.00023085,"MEAN_MOTION_DDOT":0},{"OBJECT_NAME":"TEVEL2-9","OBJECT_ID":"2025-052AD","EPOCH":"2026-04-04T22:38:19.784256","MEAN_MOTION":15.29701759,"ECCENTRICITY":0.00078196,"INCLINATION":97.4021,"RA_OF_ASC_NODE":350.5057,"ARG_OF_PERICENTER":54.2343,"MEAN_ANOMALY":305.9623,"EPHEMERIS_TYPE":0,"CLASSIFICATION_TYPE":"U","NORAD_CAT_ID":63237,"ELEMENT_SET_NO":999,"REV_AT_EPOCH":5882,"BSTAR":0.00073067767,"MEAN_MOTION_DOT":0.00021003,"MEAN_MOTION_DDOT":0},{"OBJECT_NAME":"TEVEL2-7","OBJECT_ID":"2025-052AE","EPOCH":"2026-04-05T16:35:15.256320","MEAN_MOTION":15.29494873,"ECCENTRICITY":0.0007925,"INCLINATION":97.4017,"RA_OF_ASC_NODE":351.1941,"ARG_OF_PERICENTER":52.1337,"MEAN_ANOMALY":308.0619,"EPHEMERIS_TYPE":0,"CLASSIFICATION_TYPE":"U","NORAD_CAT_ID":63238,"ELEMENT_SET_NO":999,"REV_AT_EPOCH":5893,"BSTAR":0.00074245,"MEAN_MOTION_DOT":0.00021208,"MEAN_MOTION_DDOT":0},{"OBJECT_NAME":"TEVEL2-8","OBJECT_ID":"2025-052AF","EPOCH":"2026-04-05T16:45:54.402912","MEAN_MOTION":15.29475567,"ECCENTRICITY":0.0007929,"INCLINATION":97.4017,"RA_OF_ASC_NODE":351.181,"ARG_OF_PERICENTER":52.9481,"MEAN_ANOMALY":307.2483,"EPHEMERIS_TYPE":0,"CLASSIFICATION_TYPE":"U","NORAD_CAT_ID":63239,"ELEMENT_SET_NO":999,"REV_AT_EPOCH":5893,"BSTAR":0.00075902,"MEAN_MOTION_DOT":0.00021672,"MEAN_MOTION_DDOT":0},{"OBJECT_NAME":"HADES-ICM","OBJECT_ID":"2025-052BN","EPOCH":"2026-04-05T16:18:02.047968","MEAN_MOTION":15.67273665,"ECCENTRICITY":0.000609,"INCLINATION":97.3876,"RA_OF_ASC_NODE":357.2845,"ARG_OF_PERICENTER":76.4715,"MEAN_ANOMALY":283.7224,"EPHEMERIS_TYPE":0,"CLASSIFICATION_TYPE":"U","NORAD_CAT_ID":63492,"ELEMENT_SET_NO":999,"REV_AT_EPOCH":5935,"BSTAR":0.0023582,"MEAN_MOTION_DOT":0.0026086,"MEAN_MOTION_DDOT":0},{"OBJECT_NAME":"INNOSAT 16 (RS92S7)","OBJECT_ID":"2025-155C","EPOCH":"2026-04-05T21:25:03.441216","MEAN_MOTION":15.24634859,"ECCENTRICITY":0.0012635,"INCLINATION":97.4513,"RA_OF_ASC_NODE":63.3246,"ARG_OF_PERICENTER":82.4335,"MEAN_ANOMALY":277.8337,"EPHEMERIS_TYPE":0,"CLASSIFICATION_TYPE":"U","NORAD_CAT_ID":64878,"ELEMENT_SET_NO":999,"REV_AT_EPOCH":6965,"BSTAR":0.00036198,"MEAN_MOTION_DOT":8.885e-5,"MEAN_MOTION_DDOT":0},{"OBJECT_NAME":"GEOSCAN 6 (RS92S6)","OBJECT_ID":"2025-155D","EPOCH":"2026-04-05T21:16:19.767360","MEAN_MOTION":15.28739086,"ECCENTRICITY":0.0010115,"INCLINATION":97.451,"RA_OF_ASC_NODE":64.2644,"ARG_OF_PERICENTER":78.0005,"MEAN_ANOMALY":282.2368,"EPHEMERIS_TYPE":0,"CLASSIFICATION_TYPE":"U","NORAD_CAT_ID":64879,"ELEMENT_SET_NO":999,"REV_AT_EPOCH":6971,"BSTAR":0.00050468,"MEAN_MOTION_DOT":0.00014056,"MEAN_MOTION_DDOT":0},{"OBJECT_NAME":"GEOSCAN 1 (RS92S1)","OBJECT_ID":"2025-155E","EPOCH":"2026-04-05T20:22:08.340096","MEAN_MOTION":15.29216624,"ECCENTRICITY":0.0010072,"INCLINATION":97.4507,"RA_OF_ASC_NODE":64.3182,"ARG_OF_PERICENTER":78.5196,"MEAN_ANOMALY":281.7174,"EPHEMERIS_TYPE":0,"CLASSIFICATION_TYPE":"U","NORAD_CAT_ID":64880,"ELEMENT_SET_NO":999,"REV_AT_EPOCH":6971,"BSTAR":0.00056647,"MEAN_MOTION_DOT":0.00016024,"MEAN_MOTION_DDOT":0},{"OBJECT_NAME":"239ALFEROV (RS61S)","OBJECT_ID":"2025-155F","EPOCH":"2026-04-05T20:17:34.752768","MEAN_MOTION":15.30959021,"ECCENTRICITY":0.000978,"INCLINATION":97.4511,"RA_OF_ASC_NODE":64.6576,"ARG_OF_PERICENTER":78.5421,"MEAN_ANOMALY":281.6917,"EPHEMERIS_TYPE":0,"CLASSIFICATION_TYPE":"U","NORAD_CAT_ID":64881,"ELEMENT_SET_NO":999,"REV_AT_EPOCH":6973,"BSTAR":0.00063617,"MEAN_MOTION_DOT":0.00019005,"MEAN_MOTION_DDOT":0},{"OBJECT_NAME":"GEOSCAN 2 (RS92S2)","OBJECT_ID":"2025-155Q","EPOCH":"2026-04-05T20:32:15.555840","MEAN_MOTION":15.29514855,"ECCENTRICITY":0.0009204,"INCLINATION":97.4506,"RA_OF_ASC_NODE":64.4477,"ARG_OF_PERICENTER":68.4398,"MEAN_ANOMALY":291.7822,"EPHEMERIS_TYPE":0,"CLASSIFICATION_TYPE":"U","NORAD_CAT_ID":64890,"ELEMENT_SET_NO":999,"REV_AT_EPOCH":6972,"BSTAR":0.00056336,"MEAN_MOTION_DOT":0.00016078,"MEAN_MOTION_DDOT":0},{"OBJECT_NAME":"GEOSCAN 5 (RS92S5)","OBJECT_ID":"2025-155R","EPOCH":"2026-04-05T20:23:43.778400","MEAN_MOTION":15.31294502,"ECCENTRICITY":0.0008694,"INCLINATION":97.4504,"RA_OF_ASC_NODE":64.7711,"ARG_OF_PERICENTER":83.8592,"MEAN_ANOMALY":276.3639,"EPHEMERIS_TYPE":0,"CLASSIFICATION_TYPE":"U","NORAD_CAT_ID":64891,"ELEMENT_SET_NO":999,"REV_AT_EPOCH":6974,"BSTAR":0.00065975,"MEAN_MOTION_DOT":0.00019915,"MEAN_MOTION_DDOT":0},{"OBJECT_NAME":"GEOSCAN 4 (RS92S4)","OBJECT_ID":"2025-155S","EPOCH":"2026-04-05T20:09:59.630400","MEAN_MOTION":15.31409594,"ECCENTRICITY":0.0008745,"INCLINATION":97.4507,"RA_OF_ASC_NODE":64.7919,"ARG_OF_PERICENTER":84.3793,"MEAN_ANOMALY":275.8445,"EPHEMERIS_TYPE":0,"CLASSIFICATION_TYPE":"U","NORAD_CAT_ID":64892,"ELEMENT_SET_NO":999,"REV_AT_EPOCH":6974,"BSTAR":0.00065874,"MEAN_MOTION_DOT":0.00019956,"MEAN_MOTION_DDOT":0},{"OBJECT_NAME":"GEOSCAN 3 (RS92S3)","OBJECT_ID":"2025-155T","EPOCH":"2026-04-05T20:36:00.741024","MEAN_MOTION":15.32942953,"ECCENTRICITY":0.0008514,"INCLINATION":97.4497,"RA_OF_ASC_NODE":65.0566,"ARG_OF_PERICENTER":86.2565,"MEAN_ANOMALY":273.9651,"EPHEMERIS_TYPE":0,"CLASSIFICATION_TYPE":"U","NORAD_CAT_ID":64893,"ELEMENT_SET_NO":999,"REV_AT_EPOCH":6976,"BSTAR":0.00079047,"MEAN_MOTION_DOT":0.00025154,"MEAN_MOTION_DDOT":0},{"OBJECT_NAME":"INNOSAT 3 (RS92S0)","OBJECT_ID":"2025-155U","EPOCH":"2026-04-05T20:37:50.474208","MEAN_MOTION":15.38971585,"ECCENTRICITY":0.0008384,"INCLINATION":97.4461,"RA_OF_ASC_NODE":65.9233,"ARG_OF_PERICENTER":87.9438,"MEAN_ANOMALY":272.2767,"EPHEMERIS_TYPE":0,"CLASSIFICATION_TYPE":"U","NORAD_CAT_ID":64894,"ELEMENT_SET_NO":999,"REV_AT_EPOCH":6982,"BSTAR":0.0011155,"MEAN_MOTION_DOT":0.00043188,"MEAN_MOTION_DDOT":0},{"OBJECT_NAME":"KNACKSAT-2","OBJECT_ID":"1998-067XZ","EPOCH":"2026-04-05T19:39:15.499296","MEAN_MOTION":15.54247426,"ECCENTRICITY":0.001084,"INCLINATION":51.6317,"RA_OF_ASC_NODE":296.8195,"ARG_OF_PERICENTER":286.1763,"MEAN_ANOMALY":73.8034,"EPHEMERIS_TYPE":0,"CLASSIFICATION_TYPE":"U","NORAD_CAT_ID":67683,"ELEMENT_SET_NO":999,"REV_AT_EPOCH":900,"BSTAR":0.00071168,"MEAN_MOTION_DOT":0.00047225,"MEAN_MOTION_DDOT":0}]
